SMDC ONE 2.4            
1 39469U 13072H   26068.55980652  .00015821  00000+0  65974-3 0  9996
2 39469 120.4883 328.0945 0137633 267.6479  90.8828 15.15767863102719
STARLINK-34139          
1 63975U 25099Z   26068.28942154  .00038926  00000+0  14155-2 0  9997
2 63975  43.0025 175.1380 0003131 286.4319  73.6189 15.27602669 47225
